STARLINK-1226
1 15229C 20012BD  21326.16380723  .00009195  00000-0  61598-3 0  3261
2 15229  53.0529 207.9994 0001954  69.3764 136.7188 15.06394008    13
